OSCAR 7 (AO-7)          
1 07530U 74089B   20202.90728023 -.00000039  00000-0  42530-4 0  9991
2 07530 101.8016 172.4643 0011894 301.3127  80.9473 12.53644295 90181
UOSAT 2 (UO-11)         
1 14781U 84021B   20202.75171004  .00000050  00000-0  12190-4 0  9999
2 14781  97.5893 213.0691 0010049  91.7389 268.4977 14.83178904936766
LUSAT (LO-19)           
1 20442U 90005G   20202.81915646 -.00000013  00000-0  11627-4 0  9998
2 20442  98.6937 150.1845 0012807  59.4889 300.7557 14.32956731593332
EYESAT A (AO-27)        
1 22825U 93061C   20202.88612777 -.00000017  00000-0  11587-4 0  9995
2 22825  98.9234 206.1803 0007331 281.6565  78.3793 14.30088928398597
ITAMSAT (IO-26)         
1 22826U 93061D   20202.93465546 -.00000016  00000-0  11911-4 0  9992
2 22826  98.9175 206.1733 0007828 267.8018  92.2267 14.30424870398832
RADIO ROSTO (RS-15)     
1 23439U 94085A   20202.91308851 -.00000047  00000-0 -12988-3 0  9992
2 23439  64.8133 192.1400 0150007  35.7372 325.3482 11.27568977 52798
JAS-2 (FO-29)           
1 24278U 96046B   20202.88556004 -.00000024  00000-0  14571-4 0  9999
2 24278  98.5866 308.3440 0349340 288.3508  67.9937 13.53098036181409
TECHSAT 1B (GO-32)      
1 25397U 98043D   20202.82819551 -.00000029  00000-0  68655-5 0  9992
2 25397  98.7294 144.0745 0001159  19.5932 340.5291 14.23687639144526
ISS (ZARYA)             
1 25544U 98067A   20203.03078535 -.00000457  00000-0 -11412-6 0  9991
2 25544  51.6419 180.9576 0001322 136.7327 335.8920 15.49515328237264
PCSAT (NO-44)           
1 26931U 01043C   20202.86708082 -.00000029  00000-0  20706-4 0  9995
2 26931  67.0515  56.1683 0005884 274.0341  86.0088 14.30582417981858
SAUDISAT 1C (SO-50)     
1 27607U 02058C   20202.64334892 -.00000041  00000-0  14676-4 0  9996
2 27607  64.5553 272.8933 0043789 167.1924 193.0302 14.75647018945758
CUTE-1 (CO-55)          
1 27844U 03031E   20202.91940259  .00000023  00000-0  30168-4 0  9994
2 27844  98.6811 210.1482 0009107 325.0587  34.9992 14.22247316884856
CUBESAT XI-IV (CO-57)   
1 27848U 03031J   20202.74467775  .00000021  00000-0  29327-4 0  9999
2 27848  98.6877 210.5359 0009250 338.7656  21.3137 14.21833082884677
MOZHAYETS 4 (RS-22)     
1 27939U 03042A   20202.94720794 -.00000031  00000-0  31608-5 0  9995
2 27939  98.0959 337.3309 0011760 244.3113 115.6877 14.66872520898925
CUBESAT XI-V            
1 28895U 05043F   20202.84071276  .00000056  00000-0  19688-4 0  9992
2 28895  98.0141 338.2690 0017088 170.9334 189.2180 14.63783996785497
CUTE-1.7+APD II (CO-65) 
1 32785U 08021C   20202.87658929  .00000092  00000-0  15492-4 0  9992
2 32785  97.5740 189.4254 0013783  28.9155 331.2823 14.88489345662914
DELFI-C3 (DO-64)        
1 32789U 08021G   20202.64978424  .00000838  00000-0  58659-4 0  9996
2 32789  97.4161 244.2881 0011627 193.9268 166.1642 15.07800752666811
SEEDS II (CO-66)        
1 32791U 08021J   20202.55125871  .00000128  00000-0  18238-4 0  9990
2 32791  97.5413 195.2415 0013208 359.7309   0.3901 14.91074175663311
YUBILEINY (RS-30)       
1 32953U 08025A   20202.71704866  .00000037  00000-0  19437-3 0  9999
2 32953  82.5010 257.2143 0018574 344.4995  15.5514 12.43097077551762
KKS-1 (KISEKI)          
1 33499U 09002H   20202.88222576  .00000063  00000-0  17282-4 0  9998
2 33499  98.3135  58.5527 0009681  26.1294 334.0401 14.75545504617514
SWISSCUBE               
1 35932U 09051B   20202.74363287  .00000076  00000-0  28268-4 0  9996
2 35932  98.6110  26.0964 0008201  33.3969 326.7744 14.56407659574679
BEESAT-1                
1 35933U 09051C   20202.79298583  .00000061  00000-0  24675-4 0  9990
2 35933  98.6104  28.0140 0006638  46.8834 313.2917 14.56481679574759
ITUPSAT1                
1 35935U 09051E   20202.80730645  .00000049  00000-0  22531-4 0  9999
2 35935  98.6211  28.2243 0008923  43.8292 316.3611 14.55626377574525
XIWANG-1 (HOPE-1)       
1 36122U 09072B   20202.77135041 -.00000025  00000-0  46362-4 0  9999
2 36122 100.0944 191.7855 0007920 143.5965 216.5740 13.16355373509254
JUGNU                   
1 37839U 11058B   20202.91203611  .00000268  00000-0  10032-5 0  9991
2 37839  19.9618  79.8565 0018872  37.5491  63.1845 14.12683479453522
SRMSAT                  
1 37841U 11058D   20202.88356098  .00000293  00000-0  15869-4 0  9998
2 37841  19.9712 145.0504 0011711 250.5767 142.9383 14.10663695452895
M-CUBED & EXP-1 PRIME   
1 37855U 11061F   20202.91995077  .00000253  00000-0  20712-4 0  9996
2 37855 101.7151 308.5780 0170604 335.6341  23.6873 15.06375175476242
STRAND-1                
1 39090U 13009E   20202.54498997  .00000003  00000-0  16029-4 0  9990
2 39090  98.4540  46.0765 0009043 178.5613 181.5600 14.35137575387435
SOMP                    
1 39134U 13015E   20202.64417419  .00000698  00000-0  40218-4 0  9994
2 39134  64.8621 170.1918 0030520 238.3496 121.4655 15.21125362401109
BEESAT-3                
1 39135U 13015F   20202.70462787  .00000376  00000-0  27972-4 0  9995
2 39135  64.8661 194.0215 0035129 238.9846 120.7829 15.18235878400265
BEESAT-2                
1 39136U 13015G   20202.43619331  .00000561  00000-0  37452-4 0  9995
2 39136  64.8698 199.9727 0032650 276.2208  83.5199 15.17622290400512
ZACUBE-1 (TSHEPISOSAT)  
1 39417U 13066B   20202.93763609  .00000109  00000-0  20043-4 0  9992
2 39417  97.5652 199.0991 0059158 166.5825 193.6978 14.81292422359992
GOMX-1                  
1 39430U 13066Q   20202.78389236  .00000114  00000-0  29240-4 0  9994
2 39430  97.7925 139.3013 0152357  79.6118 282.2224 14.59412768354668
CUBEBUG-2 (LO-74)       
1 39440U 13066AA  20202.91051947  .00000105  00000-0  21675-4 0  9999
2 39440  97.6324 183.5671 0078791 230.9344 128.4839 14.76028556357511
FUNCUBE-1 (AO-73)       
1 39444U 13066AE  20202.91611568  .00000169  00000-0  26951-4 0  9996
2 39444  97.5593 201.3277 0058466 158.7211 201.6453 14.82148938358320
UWE-3                   
1 39446U 13066AG  20202.90956834  .00000108  00000-0  20976-4 0  9999
2 39446  97.5994 190.7402 0069293 199.4581 160.3984 14.78561909357512
SPROUT                  
1 39770U 14029E   20202.84232273  .00000176  00000-0  25347-4 0  9998
2 39770  97.8998 308.9833 0007997 210.8180 149.2565 14.87793002334029
UNISAT-6                
1 40012U 14033C   20202.86856310  .00000133  00000-0  27204-4 0  9997
2 40012  97.7079  56.1445 0056766 251.9647 107.5372 14.74131240327348
DUCHIFAT-1              
1 40021U 14033M   20202.76929760  .00000285  00000-0  34703-4 0  9996
2 40021  97.9427 134.2115 0012841 171.0707 189.0741 14.90931441330858
QB50P1                  
1 40025U 14033R   20202.85008934  .00000116  00000-0  18297-4 0  9994
2 40025  97.9146 127.1562 0012134 182.6248 177.4907 14.89157036330066
NUDT-PHONESAT           
1 40900U 15049B   20202.86991969  .00001390  00000-0  59909-4 0  9994
2 40900  97.4305 213.5343 0011247 219.6489 224.0728 15.24217212268286
ZDPS 2A                 
1 40901U 15049C   20202.87685561  .00000779  00000-0  41222-4 0  9993
2 40901  97.4611 208.1642 0011530 255.5344 152.7405 15.18350061267644
ZDPS 2B                 
1 40902U 15049D   20202.86580912  .00000810  00000-0  42712-4 0  9998
2 40902  97.4604 205.4313 0011586 252.8520 191.9243 15.18346242267617
XW-2A                   
1 40903U 15049E   20202.84070140  .00001360  00000-0  32526-4 0  9997
2 40903  97.2861 251.8133 0014344 136.1879 340.3103 15.43191188271628
KAITUO 1A               
1 40904U 15049F   20202.86209340  .00000481  00000-0  28683-4 0  9998
2 40904  97.4766 203.4225 0012762 268.2983 186.1152 15.15736678267303
2015-049G               
1 40905U 15049G   20202.89987990  .00000168  00000-0  12674-4 0  9991
2 40905  97.4853 200.6623 0014031 264.2231 156.5948 15.14580714267148
XW-2C                   
1 40906U 15049H   20202.90287630  .00000271  00000-0  17541-4 0  9991
2 40906  97.4771 203.7584 0013103 257.2226 170.3493 15.16107856267326
XW-2D                   
1 40907U 15049J   20202.89093843  .00000241  00000-0  15881-4 0  9993
2 40907  97.4752 203.4585 0012403 253.7704 171.1197 15.16344758267344
LILACSAT-2              
1 40908U 15049K   20202.87558498  .00000105  00000-0  93953-5 0  9990
2 40908  97.4916 201.7500 0014113 266.1572 138.8170 15.14062420267056
XW-2F                   
1 40910U 15049M   20202.84876031  .00000662  00000-0  35839-4 0  9992
2 40910  97.4679 206.0429 0012976 241.6128 202.0382 15.17997522267404
XW-2B                   
1 40911U 15049N   20202.81371789  .00000404  00000-0  24318-4 0  9994
2 40911  97.4769 204.0806 0012264 255.0861 187.1772 15.16270612267224
KAITUO 1B               
1 40912U 15049P   20202.85646624  .00000749  00000-0  37498-4 0  9997
2 40912  97.4476 210.2312 0013624 216.8094 227.7281 15.20397702267798
TIANWANG 1C (TW-1C)     
1 40926U 15051B   20202.85303932  .00015576  00000-0  14758-3 0  9994
2 40926  97.0813 254.8687 0003922 337.8193 139.7170 15.67014980272258
TIANWANG 1A (TW-1A)     
1 40928U 15051D   20202.81073319  .00002178  00000-0  51594-4 0  9999
2 40928  97.1077 229.8278 0012292  69.7347  40.4089 15.42763199270513
LAPAN-A2                
1 40931U 15052B   20202.17446719  .00000723  00000-0  11533-4 0  9994
2 40931   5.9979 102.0333 0013523  17.4843 342.5641 14.76639406260101
E-ST@R-II               
1 41459U 16025D   20202.87276559  .00000814  00000-0  44502-4 0  9994
2 41459  98.1073 314.6091 0166139  99.3494 262.6557 15.06510328232473
AAUSAT 4                
1 41460U 16025E   20202.82579289  .00001516  00000-0  76813-4 0  9997
2 41460  98.1068 317.0090 0155022  87.8755 274.0200 15.08865090232671
NUSAT-1 (FRESCO)        
1 41557U 16033B   20202.90733829  .00000678  00000-0  27443-4 0  9997
2 41557  97.4042 292.9155 0012666 336.3161  23.7494 15.28082982230882
BEESAT-4                
1 41619U 16040W   20202.71356519  .00000879  00000-0  39001-4 0  9996
2 41619  97.3173 261.4580 0012665  66.6726 293.5843 15.24082874214464
